ORBCOMM-X [-]           
1 21576U 91050C   24093.74784618  .00000455  00000+0  15057-3 0  9993
2 21576  98.3956 162.1739 0004867  82.6974 277.4769 14.42425264718825
ORBCOMM FM01 [-]        
1 23545U 95017A   24093.37243064  .00006498  00000+0  88409-3 0  9996
2 23545  69.9666  83.9543 0009054 271.2479  88.7633 14.79161362547084
ORBCOMM FM02 [-]        
1 23546U 95017B   24093.45821876  .00005387  00000+0  74205-3 0  9994
2 23546  69.9679 103.0997 0010859 267.2867  92.7039 14.78740514547049
ORBCOMM FM08 [-]        
1 25112U 97084A   24092.88692604  .00001928  00000+0  62187-3 0  9995
2 25112  45.0151 320.4896 0007220 178.7209 181.3661 14.42265853377582
ORBCOMM FM10 [-]        
1 25113U 97084B   24093.30726895  .00002153  00000+0  69073-3 0  9996
2 25113  45.0163 320.3104 0005050 150.3997 209.7139 14.42187253552796
ORBCOMM FM11 [+]        
1 25114U 97084C   24093.32281804  .00001921  00000+0  62245-3 0  9991
2 25114  45.0150 320.2744 0005802 151.1541 208.9630 14.42069964377768
ORBCOMM FM12 [-]        
1 25115U 97084D   24093.55877175  .00001752  00000+0  57200-3 0  9996
2 25115  45.0154 318.8315 0004852 152.4657 207.6451 14.42037929377590
ORBCOMM FM09 [-]        
1 25116U 97084E   24093.56920531  .00001814  00000+0  59102-3 0  9995
2 25116  45.0160 319.4575 0005979 138.5069 221.6236 14.42004206377809
